INTELSAT 902 (IS-902)   
1 26900U 01039A   26129.24680245 -.00000272  00000+0  00000+0 0  9991
2 26900   6.0214  72.2478 0004356 331.5168 222.0460  1.00270255 90307
INTELSAT 904 (IS-904)   
1 27380U 02007A   26129.18996488 -.00000215  00000+0  00000+0 0  9999
2 27380   6.8233  69.6430 0007878 347.0862 207.1940  1.00270898 51376
DIRECTV 5 (TEMPO 1)     
1 27426U 02023A   26129.44797426 -.00000047  00000+0  00000+0 0  9991
2 27426   4.7790  75.7800 0003423 335.5980 227.0635  1.00272213 87730
INTELSAT 905 (IS-905)   
1 27438U 02027A   26129.44186117  .00000105  00000+0  00000+0 0  9991
2 27438   6.6568  70.2570 0003885 351.6320 187.2429  1.00272136 50978
GALAXY 3C (G-3C)        
1 27445U 02030A   26129.41251902 -.00000142  00000+0  00000+0 0  9997
2 27445   3.6295  78.4902 0001884  27.0024 175.4008  1.00271966 46103
INTELSAT 906 (IS-906)   
1 27513U 02041A   26129.48333413  .00000024  00000+0  00000+0 0  9998
2 27513   5.7066  73.3861 0004480 339.7212  52.3296  1.00270952 86642
GALAXY 13 (HORIZONS-1)  
1 27954U 03044A   26129.45662324  .00000142  00000+0  00000+0 0  9995
2 27954   1.3203  84.3086 0002142 321.9049 195.4309  1.00272247 46189
INTELSAT 10-02          
1 28358U 04022A   26129.32787395 -.00000005  00000+0  00000+0 0  9992
2 28358   0.0341  62.5528 0000699 338.1131 303.4791  1.00258653 80160
DIRECTV 8               
1 28659U 05019A   26129.46879654  .00000000  00000+0  00000+0 0  9992
2 28659   0.0136 273.0908 0003042 138.1600 225.7505  1.00269926 76687
GALAXY 28 (G-28)        
1 28702U 05022A   26129.42612781 -.00000190  00000+0  00000+0 0  9998
2 28702   3.1987  79.3941 0003264 334.4992 299.6632  1.00273816 51585
GALAXY 16 (G-16)        
1 29236U 06023A   26129.45100734 -.00000118  00000+0  00000+0 0  9996
2 29236   0.0349 118.4953 0002791 294.2899 237.8479  1.00270451 72585
DIRECTV 9S              
1 29494U 06043A   26129.43227183 -.00000104  00000+0  00000+0 0  9995
2 29494   2.3205  81.3461 0004648 343.5893 216.7535  1.00272162 50995
GALAXY 17 (G-17)        
1 31307U 07016B   26129.45378067 -.00000196  00000+0  00000+0 0  9993
2 31307   2.8740  80.3683 0004684 344.7868 240.4854  1.00271113 69410
INTELSAT 11 (IS-11)     
1 32253U 07044B   26129.45802736 -.00000143  00000+0  00000+0 0  9992
2 32253   3.4644  79.1209 0000238 208.8076  40.3849  0.99050115 68068
HORIZONS-2              
1 32388U 07063B   26129.45603403 -.00000244  00000+0  00000+0 0  9994
2 32388   2.5020  81.0815 0003808 334.4376 262.1458  1.00273391 67420
DIRECTV 11              
1 32729U 08013A   26129.45100734 -.00000117  00000+0  00000+0 0  9997
2 32729   0.0115  25.7950 0000211   6.2437 258.4215  1.00270586 45203
GALAXY 18 (G-18)        
1 32951U 08024A   26129.46865012  .00000033  00000+0  00000+0 0  9990
2 32951   0.0048 306.3702 0003133 107.6556 218.9744  1.00272443 45462
INTELSAT 25 (IS-25)     
1 33153U 08034A   26129.43960176 -.00000141  00000+0  00000+0 0  9991
2 33153   2.6076  80.7561 0001883 328.4016 263.1261  0.99391793 65304
GALAXY 19 (G-19)        
1 33376U 08045A   26129.45144066 -.00000131  00000+0  00000+0 0  9993
2 33376   0.0108  71.2225 0002843 343.2557 238.3148  1.00270827 64510
FM-5                    
1 35493U 09034A   26129.45360735 -.00000192  00000+0  00000+0 0  9994
2 35493   0.0133 276.5589 0000279   8.4803  19.3960  1.00273828 46252
INTELSAT 14 (IS-14)     
1 36097U 09064A   26129.42198470 -.00000265  00000+0  00000+0 0  9991
2 36097   0.0169 299.2338 0002607 116.0088 278.9334  1.00272056 60216
INTELSAT 15 (IS-15)     
1 36106U 09067A   26129.48749416 -.00000177  00000+0  00000+0 0  9995
2 36106   0.0125 339.3805 0002356  65.2489  83.3356  1.00272421 40840
DIRECTV 12              
1 36131U 09075A   26129.43811435 -.00000095  00000+0  00000+0 0  9997
2 36131   0.0121  94.2447 0000289 351.5770 196.4467  1.00269928 46168
INTELSAT 16 (IS-16)     
1 36397U 10006A   26129.45551403 -.00000236  00000+0  00000+0 0  9992
2 36397   0.0319  71.1611 0002589   9.4100 234.4966  1.00271453 59267
XM-5                    
1 37185U 10053A   26129.38211426 -.00000015  00000+0  00000+0 0  9995
2 37185   0.0627 272.2332 0003518 274.0591  63.2857  1.00272328 57094
INTELSAT 17 (IS-17)     
1 37238U 10065B   26129.48376748  .00000007  00000+0  00000+0 0  9997
2 37238   0.0089 195.8366 0002590 217.9103  53.7015  1.00271558 52860
INTELSAT 28 (IS-28)     
1 37392U 11016A   26129.32180725 -.00000215  00000+0  00000+0 0  9998
2 37392   1.7053  83.0706 0004071 330.4624 257.7714  1.00272577 52898
INTELSAT 18 (IS-18)     
1 37834U 11056A   26129.49003169  .00000061  00000+0  00000+0 0  9995
2 37834   0.0149 275.6670 0002188 147.9826 160.0731  1.00272378 53422
INTELSAT 22 (IS-22)     
1 38098U 12011A   26129.48498081 -.00000050  00000+0  00000+0 0  9999
2 38098   0.0084 117.9255 0001834 300.2378  55.8171  1.00271835  6809
INTELSAT 19 (IS-19)     
1 38356U 12030A   26129.54650970 -.00000048  00000+0  00000+0 0  9998
2 38356   0.0110 302.0909 0003064 110.0663 177.9582  1.00271250 50060
INTELSAT 20 (IS-20)     
1 38740U 12043A   26129.48420080 -.00000016  00000+0  00000+0 0  9994
2 38740   0.0056 255.9027 0001690 286.9661 287.2410  1.00270814 50360
INTELSAT 21 (IS-21)     
1 38749U 12045A   26129.45915404 -.00000276  00000+0  00000+0 0  9999
2 38749   0.0389  95.6350 0002024 321.8806 277.0736  1.00272761 50134
INTELSAT 23 (IS-23)     
1 38867U 12057A   26129.35625390 -.00000276  00000+0  00000+0 0  9994
2 38867   0.0117 288.5094 0000266 191.3771 182.5184  1.00267503 49569
FM-6                    
1 39360U 13058A   26129.36572796 -.00000007  00000+0  00000+0 0  9999
2 39360   0.0106 304.0200 0001305 169.4303 129.0673  1.00267392 45685
INTELSAT 30 (IS-30)     
1 40271U 14062A   26129.28075991 -.00000143  00000+0  00000+0 0  9995
2 40271   0.0187   9.0418 0000906  33.8609 190.2337  1.00270451  6403
DIRECTV 14              
1 40333U 14078B   26129.45100734 -.00000117  00000+0  00000+0 0  9995
2 40333   0.0107 303.4402 0000476 216.4125 130.5461  1.00270195 41658
DIRECTV 15              
1 40663U 15026A   26129.46708958 -.00000094  00000+0  00000+0 0  9992
2 40663   0.0366  84.4676 0000413  89.5351 118.5662  1.00270835 40076
SKY MEXICO-1            
1 40664U 15026B   26129.45508068 -.00000226  00000+0  00000+0 0  9999
2 40664   0.0078 301.4718 0002106 116.9308 253.9092  1.00271386 40066
INTELSAT 34 (IS-34)     
1 40874U 15039A   26129.26529771 -.00000277  00000+0  00000+0 0  9995
2 40874   0.0116 296.9501 0000123  75.5733 254.5719  1.00272090 39243
INTELSAT 31 (IS-31)     
1 41581U 16035A   26129.35453833 -.00000142  00000+0  00000+0 0  9994
2 41581   0.0128 245.4613 0001510  25.8027 348.5050  1.00270336 36295
INTELSAT 36 (IS-36)     
1 41747U 16053A   26129.48420080 -.00000016  00000+0  00000+0 0  9990
2 41747   0.0126 339.3700 0001419 356.7357 134.0226  1.00270611 35576
INTELSAT 32E (IS-32E)   
1 41945U 17007B   26129.46210073 -.00000261  00000+0  00000+0 0  9999
2 41945   0.0186 280.8859 0000473  56.8314  12.7550  1.00270927 33836
INTELSAT 35E (IS-35E)   
1 42818U 17041A   26129.42351443 -.00000230  00000+0  00000+0 0  9996
2 42818   0.0151 270.6210 0002074 137.0648 297.5206  1.00270139 32427
INTELSAT 37E (IS-37E)   
1 42950U 17059A   26129.32449391 -.00000132  00000+0  00000+0 0  9992
2 42950   0.0042 293.3091 0002738 118.0523 274.6085  1.00273819 31675
AZERSPACE 2 (IS-38)     
1 43632U 18074A   26129.47960747  .00000145  00000+0  00000+0 0  9990
2 43632   0.0164 274.5699 0001873 122.7359  47.7795  1.00268632 28053
HORIZONS-3E             
1 43633U 18074B   26128.86239957 -.00000022  00000+0  00000+0 0  9990
2 43633   0.0174 136.7961 0000752 190.5862  18.7626  1.00271958 27946
AT&T T-16               
1 44333U 19034A   26129.02288721 -.00000108  00000+0  00000+0 0  9992
2 44333   0.0290  64.6405 0000550 151.2819 278.3208  1.00273753 25243
INTELSAT 39 (IS-39)     
1 44476U 19049B   26129.48290080  .00000042  00000+0  00000+0 0  9993
2 44476   0.0179 275.9867 0000264 348.2244 198.8842  1.00271383 24749
GALAXY 30 (G-30)        
1 46114U 20056C   26129.44589397  .00000045  00000+0  00000+0 0  9995
2 46114   0.0165 278.1648 0002635 144.9628 199.6645  1.00271517 20901
GALAXY 33 (G-33)        
1 54026U 22128A   26129.44433397  .00000087  00000+0  00000+0 0  9992
2 54026   0.0332  79.5844 0001942 329.1622 205.4956  1.00272410 13355
GALAXY 34 (G-34)        
1 54027U 22128B   26129.44511397  .00000067  00000+0  00000+0 0  9998
2 54027   0.0113 289.9662 0001771 123.6269 204.9278  1.00272287 13524
GALAXY 31 (G-31)        
1 54243U 22153A   26129.44667397  .00000021  00000+0  00000+0 0  9998
2 54243   0.0276 123.2989 0001419 288.6305 215.1486  1.00271856  6740
GALAXY 32 (G-32)        
1 54244U 22153B   26129.45265402 -.00000166  00000+0  00000+0 0  9992
2 54244   0.0190  15.3351 0002697   9.8205 274.0915  1.00271989 12757
GALAXY 35 (G-35)        
1 54741U 22170A   26129.46320610 -.00000154  00000+0  00000+0 0  9994
2 54741   0.0066 238.4078 0002250 178.8002 243.7435  1.00271585 12507
GALAXY 36 (G-36)        
1 54742U 22170B   26129.45300067 -.00000177  00000+0  00000+0 0  9993
2 54742   0.0123 216.5925 0002676 211.8342 232.9349  1.00271910 12389
GALAXY 37 (G-37)        
1 57493U 23112A   26129.44546065  .00000056  00000+0  00000+0 0  9990
2 57493   0.0153 280.5981 0002238 128.4737 211.5694  1.00271550 10155
